start=new Date('2021-11-15T00:00:00.000Z').valueOf();
sats=[{"CENTER_NAME":"EARTH","RA_OF_ASC_NODE":"51.3094","MEAN_MOTION_DOT":"-0.00000017","GP_ID":"189773617","SEMIMAJOR_AXIS":"6925.355","REF_FRAME":"TEME","MEAN_MOTION_DDOT":"0.0000000000000","RCS_SIZE":"LARGE","MEAN_MOTION":"15.06397873","OBJECT_ID":"2020-070A","EPHEMERIS_TYPE":"0","TLE_LINE2":"2 46532  53.0554  51.3094 0001115  68.3834 291.7274 15.06397873 61970","APOAPSIS":"547.992","SITE":"AFETR","PERIOD":"95.592","LAUNCH_DATE":"2020-10-06","ARG_OF_PERICENTER":"68.3834","REV_AT_EPOCH":"6197","PERIAPSIS":"546.448","EPOCH":"2021-11-14T17:53:45.374784","ELEMENT_SET_NO":"999","FILE":"3215179","DECAY_DATE":null,"COUNTRY_CODE":"US","MEAN_ELEMENT_THEORY":"SGP4","TLE_LINE1":"1 46532U 20070A   21318.74566406 -.00000017  00000-0  17776-4 0  9993","INCLINATION":"53.0554","MEAN_ANOMALY":"291.7274","OBJECT_NAME":"STARLINK-1644","NORAD_CAT_ID":"46532","BSTAR":"0.00001777600000","CLASSIFICATION_TYPE":"U","TIME_SYSTEM":"UTC","ECCENTRICITY":"0.00011150","OBJECT_TYPE":"PAYLOAD"},{"SEMIMAJOR_AXIS":"6925.347","GP_ID":"189773867","MEAN_MOTION_DOT":"0.00000455","RA_OF_ASC_NODE":"51.2763","CENTER_NAME":"EARTH","EPHEMERIS_TYPE":"0","MEAN_MOTION":"15.06400622","OBJECT_ID":"2020-070B","RCS_SIZE":"LARGE","MEAN_MOTION_DDOT":"0.0000000000000","REF_FRAME":"TEME","SITE":"AFETR","APOAPSIS":"548.220","TLE_LINE2":"2 46533  53.0544  51.2763 0001456  72.1349 287.9799 15.06400622 61970","REV_AT_EPOCH":"6197","ARG_OF_PERICENTER":"72.1349","LAUNCH_DATE":"2020-10-06","PERIOD":"95.592","EPOCH":"2021-11-14T18:09:40.342752","PERIAPSIS":"546.203","MEAN_ELEMENT_THEORY":"SGP4","COUNTRY_CODE":"US","DECAY_DATE":null,"FILE":"3215179","ELEMENT_SET_NO":"999","OBJECT_NAME":"STARLINK-1648","INCLINATION":"53.0544","MEAN_ANOMALY":"287.9799","TLE_LINE1":"1 46533U 20070B   21318.75671693  .00000455  00000-0  49473-4 0  9994","OBJECT_TYPE":"PAYLOAD","ECCENTRICITY":"0.00014560","TIME_SYSTEM":"UTC","CLASSIFICATION_TYPE":"U","BSTAR":"0.00004947300000","NORAD_CAT_ID":"46533"},{"MEAN_MOTION_DDOT":"0.0000000000000","REF_FRAME":"TEME","MEAN_MOTION":"15.06400114","OBJECT_ID":"2020-070C","RCS_SIZE":"LARGE","EPHEMERIS_TYPE":"0","CENTER_NAME":"EARTH","GP_ID":"189774619","RA_OF_ASC_NODE":"51.3394","MEAN_MOTION_DOT":"-0.00000948","SEMIMAJOR_AXIS":"6925.348","PERIOD":"95.592","LAUNCH_DATE":"2020-10-06","ARG_OF_PERICENTER":"79.6120","REV_AT_EPOCH":"6197","APOAPSIS":"548.012","TLE_LINE2":"2 46534  53.0547  51.3394 0001154  79.6120 280.4999 15.06400114 61975","SITE":"AFETR","ELEMENT_SET_NO":"999","DECAY_DATE":null,"FILE":"3215179","MEAN_ELEMENT_THEORY":"SGP4","COUNTRY_CODE":"US","PERIAPSIS":"546.414","EPOCH":"2021-11-14T17:43:07.838688","NORAD_CAT_ID":"46534","CLASSIFICATION_TYPE":"U","BSTAR":"-0.00004473500000","TIME_SYSTEM":"UTC","OBJECT_TYPE":"PAYLOAD","ECCENTRICITY":"0.00011540","TLE_LINE1":"1 46534U 20070C   21318.73828517 -.00000948  00000-0 -44735-4 0  9997","INCLINATION":"53.0547","MEAN_ANOMALY":"280.4999","OBJECT_NAME":"STARLINK-1659"},{"ELEMENT_SET_NO":"999","MEAN_ELEMENT_THEORY":"SGP4","COUNTRY_CODE":"US","DECAY_DATE":null,"FILE":"3215179","EPOCH":"2021-11-14T14:16:07.878432","PERIAPSIS":"546.406","BSTAR":"-0.00001011300000","CLASSIFICATION_TYPE":"U","NORAD_CAT_ID":"46535","OBJECT_TYPE":"PAYLOAD","ECCENTRICITY":"0.00011670","TIME_SYSTEM":"UTC","TLE_LINE1":"1 46535U 20070D   21318.59453563 -.00000432  00000-0 -10113-4 0  9998","OBJECT_NAME":"STARLINK-1663","MEAN_ANOMALY":"282.8868","INCLINATION":"53.0555","MEAN_MOTION_DDOT":"0.0000000000000","REF_FRAME":"TEME","EPHEMERIS_TYPE":"0","OBJECT_ID":"2020-070D","MEAN_MOTION":"15.06399928","RCS_SIZE":"LARGE","GP_ID":"189774370","MEAN_MOTION_DOT":"-0.00000432","RA_OF_ASC_NODE":"51.9924","CENTER_NAME":"EARTH","SEMIMAJOR_AXIS":"6925.349","LAUNCH_DATE":"2020-10-06","PERIOD":"95.592","REV_AT_EPOCH":"6194","ARG_OF_PERICENTER":"77.2251","APOAPSIS":"548.022","TLE_LINE2":"2 46535  53.0555  51.9924 0001167  77.2251 282.8868 15.06399928 61941","SITE":"AFETR"},{"NORAD_CAT_ID":"46536","CLASSIFICATION_TYPE":"U","BSTAR":"0.00030041000000","TIME_SYSTEM":"UTC","OBJECT_TYPE":"PAYLOAD","ECCENTRICITY":"0.00170550","TLE_LINE1":"1 46536U 20070E   21318.88110156  .00044246  00000-0  30041-3 0  9999","MEAN_ANOMALY":"212.7138","INCLINATION":"53.0549","OBJECT_NAME":"STARLINK-1668","ELEMENT_SET_NO":"999","FILE":"3215179","DECAY_DATE":null,"COUNTRY_CODE":"US","MEAN_ELEMENT_THEORY":"SGP4","PERIAPSIS":"335.075","EPOCH":"2021-11-14T21:08:47.174784","PERIOD":"91.468","LAUNCH_DATE":"2020-10-06","ARG_OF_PERICENTER":"147.4935","REV_AT_EPOCH":"6245","APOAPSIS":"358.013","TLE_LINE2":"2 46536  53.0549  18.0380 0017055 147.4935 212.7138 15.74328670 62457","SITE":"AFETR","REF_FRAME":"TEME","MEAN_MOTION_DDOT":"0.0000000000000","RCS_SIZE":"LARGE","MEAN_MOTION":"15.74328670","OBJECT_ID":"2020-070E","EPHEMERIS_TYPE":"0","CENTER_NAME":"EARTH","RA_OF_ASC_NODE":"18.0380","MEAN_MOTION_DOT":"0.00044246","GP_ID":"189773118","SEMIMAJOR_AXIS":"6724.679"},{"ECCENTRICITY":"0.00014570","OBJECT_TYPE":"PAYLOAD","TIME_SYSTEM":"UTC","BSTAR":"-0.00001253700000","CLASSIFICATION_TYPE":"U","NORAD_CAT_ID":"46537","OBJECT_NAME":"STARLINK-1672","MEAN_ANOMALY":"291.3168","INCLINATION":"53.0566","TLE_LINE1":"1 46537U 20070F   21318.75303781 -.00000468  00000-0 -12537-4 0  9995","MEAN_ELEMENT_THEORY":"SGP4","COUNTRY_CODE":"US","FILE":"3215179","DECAY_DATE":null,"ELEMENT_SET_NO":"999","EPOCH":"2021-11-14T18:04:22.466784","PERIAPSIS":"546.231","REV_AT_EPOCH":"6197","ARG_OF_PERICENTER":"68.7977","LAUNCH_DATE":"2020-10-06","PERIOD":"95.593","SITE":"AFETR","APOAPSIS":"548.249","TLE_LINE2":"2 46537  53.0566  51.2837 0001457  68.7977 291.3168 15.06391251 61975","EPHEMERIS_TYPE":"0","RCS_SIZE":"LARGE","OBJECT_ID":"2020-070F","MEAN_MOTION":"15.06391251","REF_FRAME":"TEME","MEAN_MOTION_DDOT":"0.0000000000000","SEMIMAJOR_AXIS":"6925.375","RA_OF_ASC_NODE":"51.2837","MEAN_MOTION_DOT":"-0.00000468","GP_ID":"189773368","CENTER_NAME":"EARTH"},{"TIME_SYSTEM":"UTC","OBJECT_TYPE":"PAYLOAD","ECCENTRICITY":"0.00011460","NORAD_CAT_ID":"46538","BSTAR":"0.00012966000000","CLASSIFICATION_TYPE":"U","INCLINATION":"53.0552","MEAN_ANOMALY":"277.5919","OBJECT_NAME":"STARLINK-1678","TLE_LINE1":"1 46538U 20070G   21318.66456955  .00001650  00000-0  12966-3 0  9995","FILE":"3215179","DECAY_DATE":null,"COUNTRY_CODE":"US","MEAN_ELEMENT_THEORY":"SGP4","ELEMENT_SET_NO":"999","PERIAPSIS":"546.426","EPOCH":"2021-11-14T15:56:58.809120","ARG_OF_PERICENTER":"82.5200","REV_AT_EPOCH":"6195","PERIOD":"95.592","LAUNCH_DATE":"2020-10-06","SITE":"AFETR","APOAPSIS":"548.013","TLE_LINE2":"2 46538  53.0552  51.6760 0001146  82.5200 277.5919 15.06398106 61952","RCS_SIZE":"LARGE","MEAN_MOTION":"15.06398106","OBJECT_ID":"2020-070G","EPHEMERIS_TYPE":"0","REF_FRAME":"TEME","MEAN_MOTION_DDOT":"0.0000000000000","SEMIMAJOR_AXIS":"6925.354","CENTER_NAME":"EARTH","MEAN_MOTION_DOT":"0.00001650","RA_OF_ASC_NODE":"51.6760","GP_ID":"189774120"},{"ELEMENT_SET_NO":"999","FILE":"3215179","DECAY_DATE":null,"MEAN_ELEMENT_THEORY":"SGP4","COUNTRY_CODE":"US","PERIAPSIS":"545.990","EPOCH":"2021-11-14T18:57:16.848576","NORAD_CAT_ID":"46539","CLASSIFICATION_TYPE":"U","BSTAR":"0.00116490000000","TIME_SYSTEM":"UTC","ECCENTRICITY":"0.00012440","OBJECT_TYPE":"PAYLOAD","TLE_LINE1":"1 46539U 20070H   21318.78977834  .00017168  00000-0  11649-2 0  9990","MEAN_ANOMALY":"270.4971","INCLINATION":"53.0541","OBJECT_NAME":"STARLINK-1684","REF_FRAME":"TEME","MEAN_MOTION_DDOT":"0.0000000000000","RCS_SIZE":"LARGE","MEAN_MOTION":"15.06518306","OBJECT_ID":"2020-070H","EPHEMERIS_TYPE":"0","CENTER_NAME":"EARTH","MEAN_MOTION_DOT":"0.00017168","RA_OF_ASC_NODE":"51.1042","GP_ID":"189774870","SEMIMAJOR_AXIS":"6924.986","PERIOD":"95.585","LAUNCH_DATE":"2020-10-06","ARG_OF_PERICENTER":"89.6161","REV_AT_EPOCH":"6198","TLE_LINE2":"2 46539  53.0541  51.1042 0001244  89.6161 270.4971 15.06518306 61981","APOAPSIS":"547.712","SITE":"AFETR"},{"LAUNCH_DATE":"2020-10-06","PERIOD":"95.592","REV_AT_EPOCH":"6227","ARG_OF_PERICENTER":"71.5484","APOAPSIS":"547.976","TLE_LINE2":"2 46541  53.0555  30.5621 0001092  71.5484 288.5623 15.06397958 62277","SITE":"AFETR","MEAN_MOTION_DDOT":"0.0000000000000","REF_FRAME":"TEME","EPHEMERIS_TYPE":"0","MEAN_MOTION":"15.06397958","OBJECT_ID":"2020-070K","RCS_SIZE":"LARGE","GP_ID":"189773618","RA_OF_ASC_NODE":"30.5621","MEAN_MOTION_DOT":"-0.00000120","CENTER_NAME":"EARTH","SEMIMAJOR_AXIS":"6925.355","CLASSIFICATION_TYPE":"U","BSTAR":"0.00001085400000","NORAD_CAT_ID":"46541","ECCENTRICITY":"0.00010920","OBJECT_TYPE":"PAYLOAD","TIME_SYSTEM":"UTC","TLE_LINE1":"1 46541U 20070K   21318.90969294 -.00000120  00000-0  10854-4 0  9998","OBJECT_NAME":"STARLINK-1687","MEAN_ANOMALY":"288.5623","INCLINATION":"53.0555","ELEMENT_SET_NO":"999","COUNTRY_CODE":"US","MEAN_ELEMENT_THEORY":"SGP4","DECAY_DATE":null,"FILE":"3215179","EPOCH":"2021-11-14T21:49:57.470016","PERIAPSIS":"546.464"},{"SEMIMAJOR_AXIS":"6925.349","CENTER_NAME":"EARTH","GP_ID":"189773868","MEAN_MOTION_DOT":"0.00001259","RA_OF_ASC_NODE":"51.7583","MEAN_MOTION":"15.06399735","OBJECT_ID":"2020-070L","RCS_SIZE":"LARGE","EPHEMERIS_TYPE":"0","MEAN_MOTION_DDOT":"0.0000000000000","REF_FRAME":"TEME","SITE":"AFETR","TLE_LINE2":"2 46542  53.0545  51.7583 0001123  80.7465 279.3651 15.06399735 61953","APOAPSIS":"547.992","ARG_OF_PERICENTER":"80.7465","REV_AT_EPOCH":"6195","PERIOD":"95.592","LAUNCH_DATE":"2020-10-06","PERIAPSIS":"546.437","EPOCH":"2021-11-14T15:30:26.241120","DECAY_DATE":null,"FILE":"3215179","MEAN_ELEMENT_THEORY":"SGP4","COUNTRY_CODE":"US","ELEMENT_SET_NO":"999","MEAN_ANOMALY":"279.3651","INCLINATION":"53.0545","OBJECT_NAME":"STARLINK-1692","TLE_LINE1":"1 46542U 20070L   21318.64613705  .00001259  00000-0  10339-3 0  9993","TIME_SYSTEM":"UTC","ECCENTRICITY":"0.00011230","OBJECT_TYPE":"PAYLOAD","NORAD_CAT_ID":"46542","BSTAR":"0.00010339000000","CLASSIFICATION_TYPE":"U"}];
